satname,norad_id,inclination_deg,eccentricity,mean_motion_rev_per_day,perigee_km,apogee_km,l1,l2
STARLINK-1255,45399,53.0427,0.0002644,15.49652365,415.94539952055857,419.53906045737676,1 45399U 20019AR  26057.66826801  .00086102  00000+0  15204-2 0  9999,2 45399  53.0427 155.6936 0002644 227.4116 132.6669 15.49652365328728
STARLINK-1260,45404,53.1602,0.0001279,15.30181772,474.39294479120963,476.1460461727547,1 45404U 20019AW  26057.52891036 -.00000194  00000+0  55682-5 0  9998,2 45404  53.1602 181.0798 0001279  99.5297 260.5848 15.30181772328269
STARLINK-1263,45405,53.1589,0.0001455,15.30232145,474.12194316229215,476.1162406850408,1 45405U 20019AX  26057.71325850  .00015225  00000+0  52458-3 0  9992,2 45405  53.1589 180.2537 0001455  83.7092 276.4074 15.30232145328291
STARLINK-1265,45406,53.1611,0.0001242,15.30179858,474.42401666386195,476.1264042569401,1 45406U 20019AY  26057.72802727  .00001972  00000+0  78742-4 0  9996,2 45406  53.1611 180.2613 0001242  87.4070 272.7073 15.30179858328293
STARLINK-1278,45408,53.0449,0.0001341,15.53473714,405.6831542785312,407.50281886092944,1 45408U 20019BA  26057.91668981  .00082161  00000+0  12669-2 0  9994,2 45408  53.0449 182.4618 0001341 128.0740 228.3280 15.53473714  5706
STARLINK-1296,45412,53.1599,0.0001364,15.30188481,474.31466137917414,476.18426520635967,1 45412U 20019BE  26057.72168245  .00000998  00000+0  45828-4 0  9999,2 45412  53.1599 180.1921 0001364  90.8914 269.2243 15.30188481328298
STARLINK-1298,45413,53.038,0.0007501,15.90099171,296.99432022207293,307.0158693927033,1 45413U 20019BF  26057.91668981  .00234402  31150-4  76933-3 0  9997,2 45413  53.0380 108.9939 0007501 334.9381 208.7717 15.90099171  6056
STARLINK-1309,45414,53.0679,0.0003197,15.52468174,407.352320660887,411.6923500399098,1 45414U 20019BG  26057.49902418  .00086722  00000+0  13852-2 0  9992,2 45414  53.0679 177.5778 0003197 358.7055   1.3945 15.52468174328294
STARLINK-1316,45415,53.1589,9.85e-05,15.30191767,474.5645941833336,475.9147093837346,1 45415U 20019BH  26057.63636615  .00000608  00000+0  32653-4 0  9993,2 45415  53.1589 180.6400 0000985  85.9847 274.1266 15.30191767328308
STARLINK-1318,45416,53.0248,0.000725,16.17511506,221.52880959861886,231.10526795484566,1 45416U 20019BJ  26057.81614311  .01879924  36707-2  12220-2 0  9991,2 45416  53.0248  93.7370 0007250  14.8685 345.2564 16.17511506329511
STARLINK-1286,45417,53.0493,0.0002122,15.49918222,415.52315704821103,418.406998369991,1 45417U 20019BK  26057.51874608  .00036509  00000+0  64734-3 0  9991,2 45417  53.0493 184.3607 0002122  65.3618 294.7610 15.49918222328490
STARLINK-1308,45419,53.0537,5.6e-05,15.4928215,418.4441816051494,419.2054413280339,1 45419U 20019BM  26057.71933110  .00029018  00000+0  52831-3 0  9991,2 45419  53.0537 204.7231 0000560  66.5987 293.5080 15.49282150327971
STARLINK-1329,45531,53.0499,0.0002229,15.53859835,403.9569089762299,406.98104051977316,1 45531U 20025A   26057.91668981  .00071330  00000+0  10870-2 0  9996,2 45531  53.0499 133.4349 0002229 248.9436 158.4931 15.53859835  5972
STARLINK-1338,45532,53.0501,0.0004523,15.52531927,406.26654134411456,412.40648988633984,1 45532U 20025B   26057.91668981  .00051829  00000+0  83249-3 0  9999,2 45532  53.0501 136.7022 0004523 305.1028 177.0583 15.52531927  5690
STARLINK-1350,45535,53.0729,0.0001535,15.35750984,457.6413218708449,459.74022799774866,1 45535U 20025E   26057.33839695  .00012607  00000+0  36757-3 0  9993,2 45535  53.0729  86.4407 0001535  56.7881 303.3268 15.35750984324414
STARLINK-1362,45538,53.1591,0.0001475,15.30160475,474.3221996474558,476.34397332296885,1 45538U 20025H   26057.66667824  .00058470  00000+0  19732-2 0  9996,2 45538  53.1591 152.1992 0001475  88.0710 181.5914 15.30160475  5557
STARLINK-1368,45540,53.1606,0.0001201,15.30199655,474.39301182007785,476.03918723458355,1 45540U 20025K   26057.62730735  .00002406  00000+0  93319-4 0  9990,2 45540  53.1606 152.7127 0001201  87.1114 273.0024 15.30199655323473
STARLINK-1371,45542,53.0516,0.0002122,15.45049473,429.7877611503909,432.677657655061,1 45542U 20025M   26057.49959993  .00071815  00000+0  14915-2 0  9999,2 45542  53.0516 142.7943 0002122 255.4847 104.5924 15.45049473323605
STARLINK-1372,45543,53.1623,0.0001086,15.30194067,474.4885083865511,475.97706030371046,1 45543U 20025N   26057.80003117  .00001105  00000+0  49418-4 0  9996,2 45543  53.1623 151.6038 0001086  84.0742 276.0382 15.30194067322604
STARLINK-1373,45544,53.0511,0.0004546,15.48563236,417.83743436436725,424.0191445255314,1 45544U 20025P   26057.60402038  .00025111  00000+0  47002-3 0  9999,2 45544  53.0511 142.1357 0004546 312.7899  47.2726 15.48563236323627
STARLINK-1294,45551,53.0291,0.000275,16.12467774,238.2621632701348,241.90218381558316,1 45551U 20025W   26057.90857178  .01221625  10016-2  10864-2 0  9994,2 45551  53.0291  29.8150 0002750 130.9173 229.2100 16.12467774325220
STARLINK-1327,45555,53.0498,0.0005289,15.51564349,408.5666798718603,415.7494539936615,1 45555U 20025AA  26057.45315955  .00089450  00000+0  14746-2 0  9999,2 45555  53.0498 120.7748 0005289  11.1332 348.9793 15.51564349323902
STARLINK-1356,45564,53.0515,0.000538,15.43367527,432.5128964793812,439.8451004937524,1 45564U 20025AK  26057.46806411  .00032649  00000+0  72624-3 0  9990,2 45564  53.0515 127.2137 0005380 352.5194   7.5730 15.43367527323815
STARLINK-1357,45565,53.0535,0.0003064,15.53015396,405.84852066652365,410.00702115813874,1 45565U 20025AL  26057.91668981  .00120270  00000+0  18728-2 0  9991,2 45565  53.0535  90.0341 0003064  29.7571 357.6728 15.53015396  5976
STARLINK-1361,45567,53.0517,0.0007592,15.45471513,424.8242444895468,435.1617090462714,1 45567U 20025AN  26057.83319611  .00058041  00000+0  11910-2 0  9999,2 45567  53.0517 125.7353 0007592 352.6239   7.4654 15.45471513323874
STARLINK-1363,45568,53.0438,0.0008538,15.74054273,341.5815064375165,353.06590313701236,1 45568U 20025AP  26057.46802474  .00093808  00000+0  64010-3 0  9993,2 45568  53.0438  93.6481 0008538  14.9699 345.1570 15.74054273324288
STARLINK-1366,45569,53.0441,0.0008408,15.73339299,343.70457492809965,355.0175356578793,1 45569U 20025AQ  26057.47801810  .00084541  00000+0  59597-3 0  9996,2 45569  53.0441  94.3122 0008408  13.8043 346.3203 15.73339299324278
STARLINK-1376,45570,53.1614,0.0001331,15.29365828,476.7943758538204,478.61940149698603,1 45570U 20025AR  26057.60966337  .00001189  00000+0  53501-4 0  9996,2 45570  53.1614 129.2036 0001331  88.1073 272.0079 15.29365828323803
STARLINK-1320,45572,53.049,0.0008031,15.66854562,362.49257714617215,373.3280783640121,1 45572U 20025AT  26057.91668981  .00034045  00000+0  31935-3 0  9999,2 45572  53.0490  38.8142 0008031  18.7764  43.6427 15.66854562  5848
STARLINK-1321,45573,53.0507,0.0003456,15.46250028,425.35548703111544,430.0596868095936,1 45573U 20025AU  26057.38989816  .00088335  00000+0  17549-2 0  9999,2 45573  53.0507 112.4838 0003456 353.9224   6.1740 15.46250028323716
STARLINK-1331,45578,53.054,0.0003266,15.46257819,425.4619441655095,429.9075069166329,1 45578U 20025AZ  26057.72015809  .00070608  00000+0  14074-2 0  9998,2 45578  53.0540 117.5761 0003266  43.8955 316.2310 15.46257819323986
STARLINK-1333,45580,53.1606,0.0001341,15.30201348,474.29201056448437,476.1300785100293,1 45580U 20025BB  26057.45922206  .00007695  00000+0  27166-3 0  9992,2 45580  53.1606 129.9728 0001341  86.9693 273.1462 15.30201348323788
STARLINK-1335,45581,53.1,0.0001984,15.17246466,512.7994647207661,515.5343309074178,1 45581U 20025BC  26057.91668981  .01483912  00000+0  67234-1 0  9990,2 45581  53.1000 124.7670 0001984  83.2029  43.6968 15.17246466  5730
STARLINK-1337,45582,53.0539,0.0003543,15.56107547,396.53392000564327,401.336153250797,1 45582U 20025BD  26057.64555269  .00092944  00000+0  12986-2 0  9990,2 45582  53.0539 115.3211 0003543  44.5691 315.5604 15.56107547323990
STARLINK-1347,45586,53.0471,0.0005985,15.51657564,407.82228647397915,415.94994414300254,1 45586U 20025BH  26057.48318796  .00089108  00000+0  14640-2 0  9995,2 45586  53.0471  83.4981 0005985   5.8269 354.2809 15.51657564324421
STARLINK-1364,45589,53.0519,0.0006539,15.47360117,420.00393826086565,428.90036435294496,1 45589U 20025BL  26057.45701497  .00073800  00000+0  14144-2 0  9990,2 45589  53.0519 116.9714 0006539  12.0860 348.0302 15.47360117323952
STARLINK-1365,45590,53.0526,0.0001836,15.43885404,433.40423342046415,435.90589066564644,1 45590U 20025BM  26057.47370499  .00041199  00000+0  89755-3 0  9995,2 45590  53.0526 146.9087 0001836 349.7906  10.3062 15.43885404323559
STARLINK-1443,45660,53.1172,0.0001653,15.21023298,501.61530316779954,503.89012530732543,1 45660U 20035D   26057.91668981  .01315994  00000+0  54048-1 0  9992,2 45660  53.1172 114.5519 0001653  81.9990  18.7478 15.21023298  5631
STARLINK-1446,45663,53.0247,7.07e-05,15.42319852,438.78256812564996,439.7465487060099,1 45663U 20035G   26057.27883037  .00020247  00000+0  47093-3 0  9992,2 45663  53.0247  53.5566 0000707 212.6244 147.4716 15.42319852317913
STARLINK-1448,45665,53.0518,0.0006889,15.4988562,412.3791563457271,421.7415792790998,1 45665U 20035J   26057.76118108  .00085336  00000+0  14938-2 0  9999,2 45665  53.0518 105.2548 0006889  33.0886 327.0551 15.49885620317220
STARLINK-1451,45668,53.053,0.0001064,15.09411074,537.2625177693735,538.7342713813377,1 45668U 20035M   26057.42662300  .00019866  00000+0  12431-2 0  9994,2 45668  53.0530 116.8868 0001064 335.9007  24.1933 15.09411074317042
STARLINK-1452,45669,53.0331,0.0008076,15.42969055,431.8479577432063,442.8563358130823,1 45669U 20035N   26057.28764213  .00077237  00000+0  17175-2 0  9991,2 45669  53.0331  75.9707 0008076   7.7665 352.3463 15.42969055317603
STARLINK-1453,45670,53.0503,0.0008527,15.49770966,411.60095792664197,423.1900590666328,1 45670U 20035P   26057.43026300  .00096359  00000+0  16894-2 0  9991,2 45670  53.0503  67.4457 0008527 358.8167   1.2819 15.49770966317627
